NORAD_CAT_ID,OBJECT_NAME,OBJECT_TYPE,EPOCH,MEAN_MOTION,ECCENTRICITY,INCLINATION,RA_OF_ASC_NODE,ARG_OF_PERICENTER,MEAN_ANOMALY,BSTAR,MEAN_MOTION_DOT,MEAN_MOTION_DDOT,TLE_LINE0,TLE_LINE1,TLE_LINE2,SEMIMAJOR_AXIS,PERIOD,APOGEE,PERIGEE,DECAYED
55414.0,STARLINK-5620,PAYLOAD,2023-08-12 15:17:38,14.98334971,0.0003816,69.9996,294.5721,267.8275,92.2447,-3.1544e-05,-4.7e-06,0.0,0 STARLINK-5620,1 55414U 23014Z   23224.63725415 -.00000470  00000-0 -31544-4 0  9999,2 55414  69.9996 294.5721 0003816 267.8275  92.2447 14.98334971 30756,6950.178,96.107,574.695,569.39,0.0
55414.0,STARLINK-5620,PAYLOAD,2023-08-13 16:55:47,14.98331786,0.000383,69.9994,291.8786,270.1734,89.8986,1.0996e-05,3.8e-07,0.0,0 STARLINK-5620,1 55414U 23014Z   23225.70541483  .00000038  00000-0  10996-4 0  9995,2 55414  69.9994 291.8786 0003830 270.1734  89.8986 14.98331786 30917,6950.187,96.107,574.714,569.39,0.0
55414.0,STARLINK-5620,PAYLOAD,2023-08-14 16:57:48,14.98332297,0.0003811,69.9993,289.3535,270.0333,90.0389,2.6363e-05,2.21e-06,0.0,0 STARLINK-5620,1 55414U 23014Z   23226.70681379  .00000221  00000-0  26363-4 0  9994,2 55414  69.9993 289.3535 0003811 270.0333  90.0389 14.98332297 31069,6950.186,96.107,574.7,569.402,0.0
55414.0,STARLINK-5620,PAYLOAD,2023-08-15 21:48:14,14.98331248,0.0003657,69.9994,286.3235,274.2477,85.8264,-1.4084e-05,-2.61e-06,0.0,0 STARLINK-5620,1 55414U 23014Z   23227.90849550 -.00000261  00000-0 -14084-4 0  9997,2 55414  69.9994 286.3235 0003657 274.2477  85.8264 14.98331248 31246,6950.189,96.107,574.596,569.512,0.0
55414.0,STARLINK-5620,PAYLOAD,2023-08-17 02:38:39,14.98329112,0.0003768,69.9996,283.2942,273.0683,87.0045,-3.2121e-06,-1.31e-06,0.0,0 STARLINK-5620,1 55414U 23014Z   23229.11017445 -.00000131  00000-0 -32121-5 0  9991,2 55414  69.9996 283.2942 0003768 273.0683  87.0045 14.98329112 31426,6950.196,96.107,574.679,569.442,0.0
55414.0,STARLINK-5620,PAYLOAD,2023-08-18 02:40:39,14.98335668,0.0003408,69.9994,280.7687,272.0446,88.0323,-7.5962e-05,-9.99e-06,0.0,0 STARLINK-5620,1 55414U 23014Z   23230.11157318 -.00000999  00000-0 -75962-4 0  9998,2 55414  69.9994 280.7687 0003408 272.0446  88.0323 14.98335668 31578,6950.175,96.107,574.409,569.672,0.0
55414.0,STARLINK-5620,PAYLOAD,2023-08-18 15:29:43,14.98349176,0.0003601,69.9992,279.4221,273.9496,86.1252,-0.00030341,-3.713e-05,0.0,0 STARLINK-5620,1 55414U 23014Z   23230.64564780 -.00003713  00000-0 -30341-3 0  9999,2 55414  69.9992 279.4221 0003601 273.9496  86.1252 14.98349176 31653,6950.134,96.106,574.501,569.496,0.0
55414.0,STARLINK-5620,PAYLOAD,2023-08-19 09:07:13,14.98327448,0.0003815,69.9988,277.5705,272.0302,88.0421,-4.9692e-06,-1.52e-06,0.0,0 STARLINK-5620,1 55414U 23014Z   23231.38001485 -.00000152  00000-0 -49692-5 0  9994,2 55414  69.9988 277.5705 0003815 272.0302  88.0421 14.98327448 31766,6950.201,96.107,574.717,569.414,0.0
55414.0,STARLINK-5620,PAYLOAD,2023-08-20 10:45:22,14.98328027,0.000386,69.9985,274.877,271.3716,88.7,-1.0689e-05,-2.21e-06,0.0,0 STARLINK-5620,1 55414U 23014Z   23232.44817447 -.00000221  00000-0 -10689-4 0  9995,2 55414  69.9985 274.8770 0003860 271.3716  88.7000 14.98328027 31928,6950.199,96.107,574.747,569.381,0.0
55414.0,STARLINK-5620,PAYLOAD,2023-08-21 02:46:41,14.9834237,0.0004094,69.998,273.1926,269.4361,90.6329,0.00013779,1.552e-05,0.0,0 STARLINK-5620,1 55414U 23014Z   23233.11575656  .00001552  00000-0  13779-3 0  9991,2 55414  69.9980 273.1926 0004094 269.4361  90.6329 14.98342370 32027,6950.155,96.106,574.865,569.174,0.0
55414.0,STARLINK-5620,PAYLOAD,2023-08-22 02:48:42,14.98331594,0.0003461,70.001,270.6698,269.1411,90.9351,1.8095e-05,1.23e-06,0.0,0 STARLINK-5620,1 55414U 23014Z   23234.11716175  .00000123  00000-0  18095-4 0  9995,2 55414  70.0010 270.6698 0003461 269.1411  90.9351 14.98331594 32172,6950.188,96.107,574.458,569.648,0.0
55414.0,STARLINK-5620,PAYLOAD,2023-08-22 09:13:15,14.9832199,0.0003144,70.0003,269.998,252.1625,107.9191,-5.9087e-05,-7.98e-06,0.0,0 STARLINK-5620,1 55414U 23014Z   23234.38420924 -.00000798  00000-0 -59087-4 0  9994,2 55414  70.0003 269.9980 0003144 252.1625 107.9191 14.98321990 32211,6950.218,96.108,574.268,569.898,0.0
55414.0,STARLINK-5620,PAYLOAD,2023-08-23 01:14:36,14.98334194,0.0003708,69.9987,268.312,271.5082,88.5652,-0.00022604,-2.79e-05,0.0,0 STARLINK-5620,1 55414U 23014Z   23235.05180726 -.00002790  00000-0 -22604-3 0  9990,2 55414  69.9987 268.3120 0003708 271.5082  88.5652 14.98334194 32313,6950.18,96.107,574.622,569.468,0.0
55414.0,STARLINK-5620,PAYLOAD,2023-08-24 10:53:25,14.98323199,0.0003875,69.9981,264.7775,271.3321,88.7394,6.0361e-05,6.27e-06,0.0,0 STARLINK-5620,1 55414U 23014Z   23236.45376858  .00000627  00000-0  60361-4 0  9996,2 55414  69.9981 264.7775 0003875 271.3321  88.7394 14.98323199 32523,6950.214,96.107,574.772,569.386,0.0
55414.0,STARLINK-5620,PAYLOAD,2023-08-25 10:55:26,14.98326504,0.0003885,69.9981,262.2526,269.9068,90.1646,6.1777e-05,6.44e-06,0.0,0 STARLINK-5620,1 55414U 23014Z   23237.45516961  .00000644  00000-0  61777-4 0  9999,2 55414  69.9981 262.2526 0003885 269.9068  90.1646 14.98326504 32678,6950.204,96.107,574.769,569.369,0.0
55414.0,STARLINK-5620,PAYLOAD,2023-08-25 14:07:42,14.9832751,0.000392,69.998,261.9156,271.4882,88.5828,6.8642e-05,7.26e-06,0.0,0 STARLINK-5620,1 55414U 23014Z   23237.58868912  .00000726  00000-0  68642-4 0  9998,2 55414  69.9980 261.9156 0003920 271.4882  88.5828 14.98327510 32697,6950.201,96.107,574.79,569.341,0.0
55414.0,STARLINK-5620,PAYLOAD,2023-08-26 10:57:27,14.98328035,0.0003843,69.9983,259.7277,268.378,91.6938,2.4038e-05,1.94e-06,0.0,0 STARLINK-5620,1 55414U 23014Z   23238.45657047  .00000194  00000-0  24038-4 0  9990,2 55414  69.9983 259.7277 0003843 268.3780  91.6938 14.98328035 32820,6950.199,96.107,574.735,569.393,0.0
55414.0,STARLINK-5620,PAYLOAD,2023-08-26 14:09:43,14.98329506,0.0003885,69.9981,259.3904,270.9303,89.1411,2.4084e-05,1.94e-06,0.0,0 STARLINK-5620,1 55414U 23014Z   23238.59008984  .00000194  00000-0  24084-4 0  9996,2 55414  69.9981 259.3904 0003885 270.9303  89.1411 14.98329506 32841,6950.194,96.107,574.76,569.359,0.0
55414.0,STARLINK-5620,PAYLOAD,2023-08-27 09:23:20,14.98328395,0.0003848,69.998,257.3702,268.7399,91.3319,4.1468e-05,4.02e-06,0.0,0 STARLINK-5620,1 55414U 23014Z   23239.39120971  .00000402  00000-0  41468-4 0  9993,2 55414  69.9980 257.3702 0003848 268.7399  91.3319 14.98328395 32963,6950.198,96.107,574.737,569.388,0.0
55414.0,STARLINK-5620,PAYLOAD,2023-08-27 12:35:36,14.98332201,0.0003822,69.9979,257.0338,267.1009,92.9713,-1.7089e-05,-2.97e-06,0.0,0 STARLINK-5620,1 55414U 23014Z   23239.52472859 -.00000297  00000-0 -17089-4 0  9999,2 55414  69.9979 257.0338 0003822 267.1009  92.9713 14.98332201 32984,6950.186,96.107,574.707,569.395,0.0
55414.0,STARLINK-5620,PAYLOAD,2023-08-28 09:25:21,14.98313524,0.0003656,69.9981,254.8454,266.6972,93.3768,0.00030126,3.502e-05,0.0,0 STARLINK-5620,1 55414U 23014Z   23240.39261158  .00003502  00000-0  30126-3 0  9990,2 55414  69.9981 254.8454 0003656 266.6972  93.3768 14.98313524 33117,6950.244,96.108,574.65,569.568,0.0
55414.0,STARLINK-5620,PAYLOAD,2023-08-28 12:37:37,14.98331082,0.0003838,69.998,254.5085,267.0457,93.0263,1.5607e-05,9.3e-07,0.0,0 STARLINK-5620,1 55414U 23014Z   23240.52612762  .00000093  00000-0  15607-4 0  9996,2 55414  69.9980 254.5085 0003838 267.0457  93.0263 14.98331082 33136,6950.19,96.107,574.722,569.387,0.0
55414.0,STARLINK-5620,PAYLOAD,2023-08-29 12:39:38,14.98331558,0.0003909,69.9983,251.9834,269.1151,90.956,8.5161e-06,8e-08,0.0,0 STARLINK-5620,1 55414U 23014Z   23241.52752651  .00000008  00000-0  85161-5 0  9998,2 55414  69.9983 251.9834 0003909 269.1151  90.9560 14.98331558 33285,6950.188,96.107,574.77,569.336,0.0
55414.0,STARLINK-5620,PAYLOAD,2023-08-30 12:41:39,14.98330802,0.0003899,69.9985,249.4583,269.3135,90.7577,8.2407e-07,-8.3e-07,0.0,0 STARLINK-5620,1 55414U 23014Z   23242.52892651 -.00000083  00000-0  82407-6 0  9999,2 55414  69.9985 249.4583 0003899 269.3135  90.7577 14.98330802 33436,6950.19,96.107,574.765,569.346,0.0
55414.0,STARLINK-5620,PAYLOAD,2023-08-30 17:30:03,14.98346703,0.0003911,69.9989,248.9531,271.347,88.7241,-0.00031447,-3.845e-05,0.0,0 STARLINK-5620,1 55414U 23014Z   23242.72920314 -.00003845  00000-0 -31447-3 0  9994,2 55414  69.9989 248.9531 0003911 271.3470  88.7241 14.98346703 33462,6950.141,96.106,574.724,569.288,0.0
55414.0,STARLINK-5620,PAYLOAD,2023-08-31 06:19:08,14.98328451,0.000389,69.9988,247.6068,269.3307,90.7407,-1.9965e-05,-3.31e-06,0.0,0 STARLINK-5620,1 55414U 23014Z   23243.26328850 -.00000331  00000-0 -19965-4 0  9990,2 55414  69.9988 247.6068 0003890 269.3307  90.7407 14.98328451 33540,6950.198,96.107,574.766,569.359,0.0
55414.0,STARLINK-5620,PAYLOAD,2023-09-01 09:33:25,14.98330293,0.0004013,69.999,244.7453,269.2831,90.7868,-1.4079e-05,-2.61e-06,0.0,0 STARLINK-5620,1 55414U 23014Z   23244.39820709 -.00000261  00000-0 -14079-4 0  9998,2 55414  69.9990 244.7453 0004013 269.2831  90.7868 14.98330293 33715,6950.192,96.107,574.846,569.268,0.0
55414.0,STARLINK-5620,PAYLOAD,2023-09-01 17:34:05,14.98319666,0.0003913,69.9987,243.9033,267.2432,92.8279,0.00019977,2.291e-05,0.0,0 STARLINK-5620,1 55414U 23014Z   23244.73200889  .00002291  00000-0  19977-3 0  9991,2 55414  69.9987 243.9033 0003913 267.2432  92.8279 14.98319666 33764,6950.225,96.108,574.809,569.37,0.0
55414.0,STARLINK-5620,PAYLOAD,2023-09-01 23:58:37,14.98346957,0.0003996,69.9973,243.2301,268.7764,91.2937,-0.00027343,-3.356e-05,0.0,0 STARLINK-5620,1 55414U 23014Z   23244.99904111 -.00003356  00000-0 -27343-3 0  9999,2 55414  69.9973 243.2301 0003996 268.7764  91.2937 14.98346957 33807,6950.14,96.106,574.783,569.228,0.0
55414.0,STARLINK-5620,PAYLOAD,2023-09-02 06:23:09,14.98330851,0.0003869,69.9973,242.5569,268.8756,91.196,1.9928e-05,1.45e-06,0.0,0 STARLINK-5620,1 55414U 23014Z   23245.26608555  .00000145  00000-0  19928-4 0  9995,2 55414  69.9973 242.5569 0003869 268.8756  91.1960 14.98330851 33841,6950.19,96.107,574.744,569.366,0.0
